{
    "links": {
        "self": "http://www.neowsapp.com/rest/v1/neo/3343108?api_key=iIulBulltgU6a56xZRHN4H3l9WmuAYTsLGpBGhQ2"
    },
    "id": "3343108",
    "neo_reference_id": "3343108",
    "name": "(2006 SD25)",
    "designation": "2006 SD25",
    "nasa_jpl_url": "http://ssd.jpl.nasa.gov/sbdb.cgi?sstr=3343108",
    "absolute_magnitude_h": 24.0,
    "estimated_diameter": {
        "kilometers": {
            "estimated_diameter_min": 0.0421264611,
            "estimated_diameter_max": 0.0941976306
        },
        "meters": {
            "estimated_diameter_min": 42.1264610556,
            "estimated_diameter_max": 94.1976305719
        },
        "miles": {
            "estimated_diameter_min": 0.0261761612,
            "estimated_diameter_max": 0.0585316759
        },
        "feet": {
            "estimated_diameter_min": 138.2101784897,
            "estimated_diameter_max": 309.0473542854
        }
    },
    "is_potentially_hazardous_asteroid": false,
    "close_approach_data": [
        {
            "close_approach_date": "1953-10-18",
            "close_approach_date_full": "1953-Oct-18 14:03",
            "epoch_date_close_approach": -511351020000,
            "relative_velocity": {
                "kilometers_per_second": "18.5092355773",
                "kilometers_per_hour": "66633.2480784564",
                "miles_per_hour": "41403.309062972"
            },
            "miss_distance": {
                "astronomical": "0.395872829",
                "lunar": "153.994530481",
                "kilometers": "59221732.00927423",
                "miles": "36798677.893195174"
            },
            "orbiting_body": "Earth"
        },
        {
            "close_approach_date": "1998-10-21",
            "close_approach_date_full": "1998-Oct-21 13:15",
            "epoch_date_close_approach": 908975700000,
            "relative_velocity": {
                "kilometers_per_second": "19.5109806285",
                "kilometers_per_hour": "70239.5302624204",
                "miles_per_hour": "43644.11256778"
            },
            "miss_distance": {
                "astronomical": "0.4287165864",
                "lunar": "166.7707521096",
                "kilometers": "64135088.159110968",
                "miles": "39851695.8343806384"
            },
            "orbiting_body": "Earth"
        },
        {
            "close_approach_date": "2006-09-15",
            "close_approach_date_full": "2006-Sep-15 09:22",
            "epoch_date_close_approach": 1158312120000,
            "relative_velocity": {
                "kilometers_per_second": "7.248768692",
                "kilometers_per_hour": "26095.5672912725",
                "miles_per_hour": "16214.7706871799"
            },
            "miss_distance": {
                "astronomical": "0.0418259301",
                "lunar": "16.2702868089",
                "kilometers": "6257070.053728887",
                "miles": "3887963.0441451606"
            },
            "orbiting_body": "Earth"
        },
        {
            "close_approach_date": "2014-07-17",
            "close_approach_date_full": "2014-Jul-17 02:19",
            "epoch_date_close_approach": 1405563540000,
            "relative_velocity": {
                "kilometers_per_second": "10.878673737",
                "kilometers_per_hour": "39163.2254532097",
                "miles_per_hour": "24334.5052823013"
            },
            "miss_distance": {
                "astronomical": "0.1402619719",
                "lunar": "54.5619070691",
                "kilometers": "20982892.238239853",
                "miles": "13038164.6491138514"
            },
            "orbiting_body": "Earth"
        },
        {
            "close_approach_date": "2022-06-26",
            "close_approach_date_full": "2022-Jun-26 19:36",
            "epoch_date_close_approach": 1656272160000,
            "relative_velocity": {
                "kilometers_per_second": "19.7760194118",
                "kilometers_per_hour": "71193.6698824116",
                "miles_per_hour": "44236.9778222129"
            },
            "miss_distance": {
                "astronomical": "0.4380820366",
                "lunar": "170.4139122374",
                "kilometers": "65536139.560622042",
                "miles": "40722268.8062744996"
            },
            "orbiting_body": "Earth"
        }
    ],
    "orbital_data": {
        "orbit_id": "16",
        "orbit_determination_date": "2017-04-06 09:08:05",
        "first_observation_date": "2006-09-20",
        "last_observation_date": "2006-10-29",
        "data_arc_in_days": 39,
        "observations_used": 78,
        "orbit_uncertainty": "7",
        "minimum_orbit_intersection": ".0163286",
        "jupiter_tisserand_invariant": "3.789",
        "epoch_osculation": "2459000.5",
        "eccentricity": ".4679925274363513",
        "semi_major_axis": "1.914917516134077",
        "inclination": "1.448169885610335",
        "ascending_node_longitude": "296.6268734053863",
        "orbital_period": "967.8844988869598",
        "perihelion_distance": "1.01875042792635",
        "perihelion_argument": "37.4816879197644",
        "aphelion_distance": "2.811084604341803",
        "perihelion_time": "2458821.030308662417",
        "mean_anomaly": "66.75289144089865",
        "mean_motion": ".3719452066997559",
        "equinox": "J2000",
        "orbit_class": {
            "orbit_class_type": "AMO",
            "orbit_class_description": "Near-Earth asteroid orbits similar to that of 1221 Amor",
            "orbit_class_range": "1.017 AU < q (perihelion) < 1.3 AU"
        }
    },
    "is_sentry_object": false
}